ALOS (DAICHI)           
1 28931U 06002A   26005.59500709  .00002125  00000+0  36611-3 0  9998
2 28931  98.1128 321.9191 0002014 101.4176 258.7256 14.69578072 64214
H-2A R/B                
1 28932U 06002B   26005.63142365  .00012675  00000+0  65458-3 0  9996
2 28932  98.2330 147.3427 0054747  95.8592 264.8883 15.15138571 84888
RESURS-DK 1             
1 29228U 06021A   26005.51071892  .00003385  00000+0  20095-3 0  9995
2 29228  69.9341  40.3978 0006851 239.1383 120.9109 15.12327286 77976
CZ-4B R/B               
1 29507U 06046C   26005.59696386  .00007422  00000+0  38215-3 0  9990
2 29507  97.5697  50.6704 0034998 124.8199 235.6335 15.16165838 50485
CZ-2C R/B               
1 31114U 07010B   26005.60204603  .00000223  00000+0  12120-3 0  9997
2 31114  98.3973 122.0523 0059978 117.2836 243.4467 14.20221575970760
COSMO-SKYMED 1          
1 31598U 07023A   26005.60187733  .00005627  00000+0  50696-3 0  9994
2 31598  97.8833 196.1607 0001520  87.1063 273.0332 14.95986148  5470
COSMOS 2428             
1 31792U 07029A   26005.59715040  .00000321  00000+0  19799-3 0  9997
2 31792  70.9384 335.7885 0005073 350.6012   9.5014 14.12902875955182
SL-16 R/B               
1 31793U 07029B   26005.59101414  .00000050  00000+0  50748-4 0  9991
2 31793  70.9775 305.0203 0002180 271.8127 260.6229 14.14825728956449
KORONAS-FOTON           
1 33504U 09003A   26005.64370874  .00014185  00000+0  33400-3 0  9990
2 33504  82.4321 341.3256 0012350  34.4146 325.7897 15.41728181936023
CZ-2C R/B               
1 37731U 11030B   26005.66809169  .00001814  00000+0  23576-3 0  9993
2 37731  97.8448 324.2502 0052316 193.9057 338.6409 14.80988535780764
H-2A R/B                
1 38341U 12025E   26005.60843457  .00003748  00000+0  34533-3 0  9991
2 38341  98.4634 327.6853 0045311 157.5845 202.7367 14.94626122738796
SHIJIAN-16 (SJ-16)      
1 39358U 13057A   26005.60730909  .00003648  00000+0  36053-3 0  9991
2 39358  74.9750 304.4899 0017938 264.9435  94.9706 14.92102638662094
