CCSDS_OMM_VERS = 2.0
CREATION_DATE  = 
ORIGINATOR     = 

OBJECT_NAME    = ALOS (DAICHI)
OBJECT_ID      = 2006-002A
CENTER_NAME    = EARTH
REF_FRAME      = TEME
TIME_SYSTEM    = UTC
MEAN_ELEMENT_THEORY = SGP/SGP4

EPOCH          = 2026-01-05T14:16:48.612576
MEAN_MOTION    = 14.69578072
ECCENTRICITY   = .0002014
INCLINATION    = 98.1128
RA_OF_ASC_NODE = 321.9191
ARG_OF_PERICENTER = 101.4176
MEAN_ANOMALY   = 258.7256

EPHEMERIS_TYPE = 0
CLASSIFICATION_TYPE = U
NORAD_CAT_ID   = 28931
ELEMENT_SET_NO = 999
REV_AT_EPOCH   = 6421
BSTAR          = .36611479E-3
MEAN_MOTION_DOT = .2125E-4
MEAN_MOTION_DDOT = 0

CCSDS_OMM_VERS = 2.0
CREATION_DATE  = 
ORIGINATOR     = 

OBJECT_NAME    = H-2A R/B
OBJECT_ID      = 2006-002B
CENTER_NAME    = EARTH
REF_FRAME      = TEME
TIME_SYSTEM    = UTC
MEAN_ELEMENT_THEORY = SGP/SGP4

EPOCH          = 2026-01-05T15:09:15.003360
MEAN_MOTION    = 15.15138571
ECCENTRICITY   = .00547476
INCLINATION    = 98.2330
RA_OF_ASC_NODE = 147.3427
ARG_OF_PERICENTER = 95.8592
MEAN_ANOMALY   = 264.8883

EPHEMERIS_TYPE = 0
CLASSIFICATION_TYPE = U
NORAD_CAT_ID   = 28932
ELEMENT_SET_NO = 999
REV_AT_EPOCH   = 8488
BSTAR          = .65458026E-3
MEAN_MOTION_DOT = .12675E-3
MEAN_MOTION_DDOT = 0

CCSDS_OMM_VERS = 2.0
CREATION_DATE  = 
ORIGINATOR     = 

OBJECT_NAME    = RESURS-DK 1
OBJECT_ID      = 2006-021A
CENTER_NAME    = EARTH
REF_FRAME      = TEME
TIME_SYSTEM    = UTC
MEAN_ELEMENT_THEORY = SGP/SGP4

EPOCH          = 2026-01-05T12:15:26.114688
MEAN_MOTION    = 15.12327286
ECCENTRICITY   = .00068513
INCLINATION    = 69.9341
RA_OF_ASC_NODE = 40.3978
ARG_OF_PERICENTER = 239.1383
MEAN_ANOMALY   = 120.9109

EPHEMERIS_TYPE = 0
CLASSIFICATION_TYPE = U
NORAD_CAT_ID   = 29228
ELEMENT_SET_NO = 999
REV_AT_EPOCH   = 7797
BSTAR          = .2009456E-3
MEAN_MOTION_DOT = .3385E-4
MEAN_MOTION_DDOT = 0

CCSDS_OMM_VERS = 2.0
CREATION_DATE  = 
ORIGINATOR     = 

OBJECT_NAME    = CZ-4B R/B
OBJECT_ID      = 2006-046C
CENTER_NAME    = EARTH
REF_FRAME      = TEME
TIME_SYSTEM    = UTC
MEAN_ELEMENT_THEORY = SGP/SGP4

EPOCH          = 2026-01-05T14:19:37.677504
MEAN_MOTION    = 15.16165838
ECCENTRICITY   = .00349988
INCLINATION    = 97.5697
RA_OF_ASC_NODE = 50.6704
ARG_OF_PERICENTER = 124.8199
MEAN_ANOMALY   = 235.6335

EPHEMERIS_TYPE = 0
CLASSIFICATION_TYPE = U
NORAD_CAT_ID   = 29507
ELEMENT_SET_NO = 999
REV_AT_EPOCH   = 5048
BSTAR          = .38215195E-3
MEAN_MOTION_DOT = .7422E-4
MEAN_MOTION_DDOT = 0

CCSDS_OMM_VERS = 2.0
CREATION_DATE  = 
ORIGINATOR     = 

OBJECT_NAME    = CZ-2C R/B
OBJECT_ID      = 2007-010B
CENTER_NAME    = EARTH
REF_FRAME      = TEME
TIME_SYSTEM    = UTC
MEAN_ELEMENT_THEORY = SGP/SGP4

EPOCH          = 2026-01-05T14:26:56.776992
MEAN_MOTION    = 14.20221575
ECCENTRICITY   = .00599782
INCLINATION    = 98.3973
RA_OF_ASC_NODE = 122.0523
ARG_OF_PERICENTER = 117.2836
MEAN_ANOMALY   = 243.4467

EPHEMERIS_TYPE = 0
CLASSIFICATION_TYPE = U
NORAD_CAT_ID   = 31114
ELEMENT_SET_NO = 999
REV_AT_EPOCH   = 97076
BSTAR          = .12120202E-3
MEAN_MOTION_DOT = .223E-5
MEAN_MOTION_DDOT = 0

CCSDS_OMM_VERS = 2.0
CREATION_DATE  = 
ORIGINATOR     = 

OBJECT_NAME    = COSMO-SKYMED 1
OBJECT_ID      = 2007-023A
CENTER_NAME    = EARTH
REF_FRAME      = TEME
TIME_SYSTEM    = UTC
MEAN_ELEMENT_THEORY = SGP/SGP4

EPOCH          = 2026-01-05T14:26:42.201312
MEAN_MOTION    = 14.95986148
ECCENTRICITY   = .00015201
INCLINATION    = 97.8833
RA_OF_ASC_NODE = 196.1607
ARG_OF_PERICENTER = 87.1063
MEAN_ANOMALY   = 273.0332

EPHEMERIS_TYPE = 0
CLASSIFICATION_TYPE = U
NORAD_CAT_ID   = 31598
ELEMENT_SET_NO = 999
REV_AT_EPOCH   = 547
BSTAR          = .50696256E-3
MEAN_MOTION_DOT = .5627E-4
MEAN_MOTION_DDOT = 0

CCSDS_OMM_VERS = 2.0
CREATION_DATE  = 
ORIGINATOR     = 

OBJECT_NAME    = COSMOS 2428
OBJECT_ID      = 2007-029A
CENTER_NAME    = EARTH
REF_FRAME      = TEME
TIME_SYSTEM    = UTC
MEAN_ELEMENT_THEORY = SGP/SGP4

EPOCH          = 2026-01-05T14:19:53.794560
MEAN_MOTION    = 14.12902875
ECCENTRICITY   = .00050736
INCLINATION    = 70.9384
RA_OF_ASC_NODE = 335.7885
ARG_OF_PERICENTER = 350.6012
MEAN_ANOMALY   = 9.5014

EPHEMERIS_TYPE = 0
CLASSIFICATION_TYPE = U
NORAD_CAT_ID   = 31792
ELEMENT_SET_NO = 999
REV_AT_EPOCH   = 95518
BSTAR          = .19798943E-3
MEAN_MOTION_DOT = .321E-5
MEAN_MOTION_DDOT = 0

CCSDS_OMM_VERS = 2.0
CREATION_DATE  = 
ORIGINATOR     = 

OBJECT_NAME    = SL-16 R/B
OBJECT_ID      = 2007-029B
CENTER_NAME    = EARTH
REF_FRAME      = TEME
TIME_SYSTEM    = UTC
MEAN_ELEMENT_THEORY = SGP/SGP4

EPOCH          = 2026-01-05T14:11:03.621696
MEAN_MOTION    = 14.14825728
ECCENTRICITY   = .00021803
INCLINATION    = 70.9775
RA_OF_ASC_NODE = 305.0203
ARG_OF_PERICENTER = 271.8127
MEAN_ANOMALY   = 260.6229

EPHEMERIS_TYPE = 0
CLASSIFICATION_TYPE = U
NORAD_CAT_ID   = 31793
ELEMENT_SET_NO = 999
REV_AT_EPOCH   = 95644
BSTAR          = .50747622E-4
MEAN_MOTION_DOT = .5E-6
MEAN_MOTION_DDOT = 0

CCSDS_OMM_VERS = 2.0
CREATION_DATE  = 
ORIGINATOR     = 

OBJECT_NAME    = KORONAS-FOTON
OBJECT_ID      = 2009-003A
CENTER_NAME    = EARTH
REF_FRAME      = TEME
TIME_SYSTEM    = UTC
MEAN_ELEMENT_THEORY = SGP/SGP4

EPOCH          = 2026-01-05T15:26:56.435136
MEAN_MOTION    = 15.41728181
ECCENTRICITY   = .00123508
INCLINATION    = 82.4321
RA_OF_ASC_NODE = 341.3256
ARG_OF_PERICENTER = 34.4146
MEAN_ANOMALY   = 325.7897

EPHEMERIS_TYPE = 0
CLASSIFICATION_TYPE = U
NORAD_CAT_ID   = 33504
ELEMENT_SET_NO = 999
REV_AT_EPOCH   = 93602
BSTAR          = .333998E-3
MEAN_MOTION_DOT = .14185E-3
MEAN_MOTION_DDOT = 0

CCSDS_OMM_VERS = 2.0
CREATION_DATE  = 
ORIGINATOR     = 

OBJECT_NAME    = CZ-2C R/B
OBJECT_ID      = 2011-030B
CENTER_NAME    = EARTH
REF_FRAME      = TEME
TIME_SYSTEM    = UTC
MEAN_ELEMENT_THEORY = SGP/SGP4

EPOCH          = 2026-01-05T16:02:03.122016
MEAN_MOTION    = 14.80988535
ECCENTRICITY   = .00523167
INCLINATION    = 97.8448
RA_OF_ASC_NODE = 324.2502
ARG_OF_PERICENTER = 193.9057
MEAN_ANOMALY   = 338.6409

EPHEMERIS_TYPE = 0
CLASSIFICATION_TYPE = U
NORAD_CAT_ID   = 37731
ELEMENT_SET_NO = 999
REV_AT_EPOCH   = 78076
BSTAR          = .23576468E-3
MEAN_MOTION_DOT = .1814E-4
MEAN_MOTION_DDOT = 0

CCSDS_OMM_VERS = 2.0
CREATION_DATE  = 
ORIGINATOR     = 

OBJECT_NAME    = H-2A R/B
OBJECT_ID      = 2012-025E
CENTER_NAME    = EARTH
REF_FRAME      = TEME
TIME_SYSTEM    = UTC
MEAN_ELEMENT_THEORY = SGP/SGP4

EPOCH          = 2026-01-05T14:36:08.746848
MEAN_MOTION    = 14.94626122
ECCENTRICITY   = .00453118
INCLINATION    = 98.4634
RA_OF_ASC_NODE = 327.6853
ARG_OF_PERICENTER = 157.5845
MEAN_ANOMALY   = 202.7367

EPHEMERIS_TYPE = 0
CLASSIFICATION_TYPE = U
NORAD_CAT_ID   = 38341
ELEMENT_SET_NO = 999
REV_AT_EPOCH   = 73879
BSTAR          = .34532553E-3
MEAN_MOTION_DOT = .3748E-4
MEAN_MOTION_DDOT = 0

CCSDS_OMM_VERS = 2.0
CREATION_DATE  = 
ORIGINATOR     = 

OBJECT_NAME    = SHIJIAN-16 (SJ-16)
OBJECT_ID      = 2013-057A
CENTER_NAME    = EARTH
REF_FRAME      = TEME
TIME_SYSTEM    = UTC
MEAN_ELEMENT_THEORY = SGP/SGP4

EPOCH          = 2026-01-05T14:34:31.505376
MEAN_MOTION    = 14.92102638
ECCENTRICITY   = .00179385
INCLINATION    = 74.9750
RA_OF_ASC_NODE = 304.4899
ARG_OF_PERICENTER = 264.9435
MEAN_ANOMALY   = 94.9706

EPHEMERIS_TYPE = 0
CLASSIFICATION_TYPE = U
NORAD_CAT_ID   = 39358
ELEMENT_SET_NO = 999
REV_AT_EPOCH   = 66209
BSTAR          = .36053073E-3
MEAN_MOTION_DOT = .3648E-4
MEAN_MOTION_DDOT = 0

